[{"OBJECT_NAME":"STARLINK-31953","OBJECT_ID":"2024-100P","EPOCH":"2026-03-09T13:00:23.450976","MEAN_MOTION":15.27573178,"ECCENTRICITY":0.00012849,"INCLINATION":43.0009,"RA_OF_ASC_NODE":122.8244,"ARG_OF_PERICENTER":216.3366,"MEAN_ANOMALY":143.7398,"EPHEMERIS_TYPE":0,"CLASSIFICATION_TYPE":"U","NORAD_CAT_ID":59898,"ELEMENT_SET_NO":999,"REV_AT_EPOCH":10117,"BSTAR":-7.8925757e-5,"MEAN_MOTION_DOT":-2.433e-5,"MEAN_MOTION_DDOT":0},{"OBJECT_NAME":"LIME","OBJECT_ID":"2025-009AR","EPOCH":"2026-03-09T17:44:15.459648","MEAN_MOTION":15.28703313,"ECCENTRICITY":0.00016347,"INCLINATION":97.3985,"RA_OF_ASC_NODE":151.4831,"ARG_OF_PERICENTER":35.9029,"MEAN_ANOMALY":324.232,"EPHEMERIS_TYPE":0,"CLASSIFICATION_TYPE":"U","NORAD_CAT_ID":62648,"ELEMENT_SET_NO":999,"REV_AT_EPOCH":6376,"BSTAR":0.00047722827,"MEAN_MOTION_DOT":0.00013254,"MEAN_MOTION_DDOT":0}]
